BEIDOU-2 IGSO-1 (C06)   
1 36828U 10036A   25114.83659122 -.00000075  00000+0  00000+0 0  9997
2 36828  54.2666 166.7429 0049250 216.2652 236.7639  1.00292408 53906
BEIDOU-2 G4 (C04)       
1 37210U 10057A   25117.60273032 -.00000110  00000+0  00000+0 0  9996
2 37210   2.6162  70.4439 0005391 204.6190 317.6660  1.00272481 53124
BEIDOU-2 IGSO-2 (C07)   
1 37256U 10068A   25116.34539425 -.00000215  00000+0  00000+0 0  9995
2 37256  48.3031 276.9810 0040931 210.3137 317.1406  1.00251395 52613
BEIDOU-2 IGSO-3 (C08)   
1 37384U 11013A   25116.53440748 -.00000209  00000+0  00000+0 0  9991
2 37384  61.8167  44.1018 0029726 180.4220 291.1729  1.00278728 51481
BEIDOU-2 IGSO-4 (C09)   
1 37763U 11038A   25116.62003196  .00000019  00000+0  00000+0 0  9999
2 37763  54.5699 169.3987 0141989 230.6721 131.3196  1.00287677 50470
BEIDOU-2 IGSO-5 (C10)   
1 37948U 11073A   25117.40566528 -.00000181  00000+0  00000+0 0  9994
2 37948  48.4382 276.6703 0102977 218.9550 320.8030  1.00259472 48962
BEIDOU-2 G5 (C05)       
1 38091U 12008A   25117.54141223  .00000059  00000+0  00000+0 0  9992
2 38091   2.5383  71.2484 0011333 261.8856 136.3496  1.00275397 48207
BEIDOU-2 M3 (C11)       
1 38250U 12018A   25117.04871923 -.00000053  00000+0  00000+0 0  9997
2 38250  56.1069 318.8618 0020565 271.6107  88.1755  1.86233540 88196
BEIDOU-2 M4 (C12)       
1 38251U 12018B   25116.98042300 -.00000052  00000+0  00000+0 0  9998
2 38251  56.0108 318.1116 0011520 276.5678  83.3221  1.86231965 88198
BEIDOU-2 M6 (C14)       
1 38775U 12050B   25117.22737528 -.00000013  00000+0  00000+0 0  9993
2 38775  56.1792  76.6875 0014642 340.9496  18.9578  1.86230896 85568
BEIDOU-2 G6 (C02)       
1 38953U 12059A   25117.54645130 -.00000172  00000+0  00000+0 0  9998
2 38953   3.3646  77.7832 0010359 309.3795 109.3422  1.00273275 45748
BEIDOU-3S IGSO-1S (C31) 
1 40549U 15019A   25117.47684374 -.00000175  00000+0  00000+0 0  9999
2 40549  49.9830 300.4525 0038291 191.1324 349.2933  1.00288546 36905
BEIDOU-3S M2S (C58)     
1 40748U 15037A   25116.64608406 -.00000050  00000+0  00000+0 0  9992
2 40748  55.2341 316.3461 0007904 263.4169  96.5123  1.86228973 66363
BEIDOU-3S M1S (C57)     
1 40749U 15037B   25116.90668720 -.00000052  00000+0  00000+0 0  9999
2 40749  55.2305 316.3297 0004084  22.8608 337.1755  1.86253670 66370
BEIDOU-3S IGSO-2S (C56) 
1 40938U 15053A   25117.38100432 -.00000169  00000+0  00000+0 0  9990
2 40938  49.8687 263.7132 0058045 186.5797 358.5023  1.00278635 35182
BEIDOU-2 IGSO-6 (C13)   
1 41434U 16021A   25115.76320127 -.00000162  00000+0  00000+0 0  9996
2 41434  59.6383  42.2045 0051918 229.7927 309.2459  1.00254616 33295
BEIDOU-2 G7 (C03)       
1 41586U 16037A   25117.58861078 -.00000350  00000+0  00000+0 0  9997
2 41586   1.6417  68.2364 0010068 338.9264 131.0928  1.00269984 32619
BEIDOU-3 M1 (C19)       
1 43001U 17069A   25116.99308732 -.00000010  00000+0  00000+0 0  9997
2 43001  56.3282  76.8324 0012213 311.3211  48.5371  1.86231066 50856
BEIDOU-3 M2 (C20)       
1 43002U 17069B   25117.46789721 -.00000014  00000+0  00000+0 0  9996
2 43002  56.3278  76.8526 0010122 331.6380  28.2683  1.86230757 50852
BEIDOU-3 M7 (C27)       
1 43107U 18003A   25117.21411127 -.00000056  00000+0  00000+0 0  9992
2 43107  54.6920 316.7795 0005004  74.2057 285.8663  1.86232343 49604
BEIDOU-3 M8 (C28)       
1 43108U 18003B   25117.15712240 -.00000056  00000+0  00000+0 0  9996
2 43108  54.6850 316.7654 0002450 276.5742  83.4149  1.86230816 49616
BEIDOU-3 M4 (C22)       
1 43207U 18018A   25117.06126228 -.00000011  00000+0  00000+0 0  9998
2 43207  56.2871  76.9085 0007609 353.1132   6.8393  1.86230970 48997
BEIDOU-3 M3 (C21)       
1 43208U 18018B   25117.12778596 -.00000011  00000+0  00000+0 0  9997
2 43208  56.2865  76.9104 0010039 322.3946  37.4980  1.86230949 48993
BEIDOU-3 M9 (C29)       
1 43245U 18029A   25116.80926286 -.00000052  00000+0  00000+0 0  9990
2 43245  54.5666 314.4702 0000536  57.6308 302.3892  1.86232385 48148
BEIDOU-3 M10 (C30)      
1 43246U 18029B   25117.27791633 -.00000055  00000+0  00000+0 0  9992
2 43246  54.5636 314.4812 0004644  25.7721 334.2636  1.86228954 48133
BEIDOU-2 IGSO-7 (C16)   
1 43539U 18057A   25117.55218539 -.00000069  00000+0  00000+0 0  9993
2 43539  55.1577 166.6600 0088471 236.0750 125.2041  1.00272034 24967
BEIDOU-3 M5 (C23)       
1 43581U 18062A   25117.50332060  .00000047  00000+0  00000+0 0  9992
2 43581  54.1012 196.4376 0003939 279.6175  80.4044  1.86228473 45890
BEIDOU-3 M6 (C24)       
1 43582U 18062B   25117.36761034  .00000046  00000+0  00000+0 0  9993
2 43582  54.1009 196.4315 0004470  22.0686 338.0165  1.86229219 45893
BEIDOU-3 M12 (C26)      
1 43602U 18067A   25116.76599586  .00000047  00000+0  00000+0 0  9996
2 43602  54.1939 195.1620 0007321  29.2749 330.8310  1.86227774 45368
BEIDOU-3 M11 (C25)      
1 43603U 18067B   25116.89990191  .00000047  00000+0  00000+0 0  9998
2 43603  54.1911 195.1219 0004019  16.8263 343.2528  1.86227239 45395
BEIDOU-3 M13 (C32)      
1 43622U 18072A   25117.39586807 -.00000015  00000+0  00000+0 0  9992
2 43622  56.2597  76.4195 0008749 311.4527  48.4339  1.86231164 44917
BEIDOU-3 M14 (C33)      
1 43623U 18072B   25117.26134973 -.00000014  00000+0  00000+0 0  9991
2 43623  56.2614  76.4176 0006748 333.9714  25.9568  1.86231189 44901
BEIDOU-3 M16 (C35)      
1 43647U 18078A   25116.34786422 -.00000049  00000+0  00000+0 0  9991
2 43647  54.4632 314.5588 0007935  29.1829 330.8788  1.86232166 44391
BEIDOU-3 M15 (C34)      
1 43648U 18078B   25117.01405532 -.00000053  00000+0  00000+0 0  9992
2 43648  54.4585 314.5372 0004993  41.1843 318.8673  1.86232131 44426
BEIDOU-3 G1 (C59)       
1 43683U 18085A   25117.58078615 -.00000273  00000+0  00000+0 0  9993
2 43683   2.9795  99.3600 0004083   9.2803  96.3437  1.00270856 23895
BEIDOU-3 M17 (C36)      
1 43706U 18093A   25117.16881405  .00000046  00000+0  00000+0 0  9998
2 43706  54.1846 196.4106 0008758 284.8014  75.1665  1.86228179 43799
BEIDOU-3 M18 (C37)      
1 43707U 18093B   25116.49466962  .00000043  00000+0  00000+0 0  9998
2 43707  54.1854 196.4253 0006780 316.4237  43.5838  1.86229615 43779
BEIDOU-3 IGSO-1 (C38)   
1 44204U 19023A   25117.54568799 -.00000240  00000+0  00000+0 0  9993
2 44204  58.1071  41.9450 0020747 226.3149 262.1138  1.00260083  3048
BEIDOU-2 G8 (C01)       
1 44231U 19027A   25117.48700873 -.00000244  00000+0  00000+0 0  9995
2 44231   1.5636  74.8560 0005016 255.1287 205.6096  1.00270526 21913
BEIDOU-3 IGSO-2 (C39)   
1 44337U 19035A   25114.72187163 -.00000081  00000+0  00000+0 0  9995
2 44337  55.2004 162.5366 0035877 209.0481 220.1698  1.00287515 21473
BEIDOU-3 M24 (C46)      
1 44542U 19061A   25117.10236787  .00000046  00000+0  00000+0 0  9994
2 44542  54.4122 196.7613 0007546 359.6190   0.4443  1.86228940 38047
BEIDOU-3 M23 (C45)      
1 44543U 19061B   25117.23195638  .00000046  00000+0  00000+0 0  9998
2 44543  54.4107 196.7257 0004569 341.5045  18.1503  1.86229026 38045
BEIDOU-3 IGSO-3 (C40)   
1 44709U 19073A   25116.86424438 -.00000202  00000+0  00000+0 0  9991
2 44709  55.5155 285.3817 0043486 181.8726 178.0219  1.00260905 20287
BEIDOU-3 M22 (C44)      
1 44793U 19078A   25116.94515649 -.00000053  00000+0  00000+0 0  9997
2 44793  54.3098 314.4314 0006957  36.6852 323.3764  1.86231996 36894
BEIDOU-3 M21 (C43)      
1 44794U 19078B   25117.07745413 -.00000054  00000+0  00000+0 0  9998
2 44794  54.2830 314.3963 0004936  34.2202 325.8248  1.86227630 36901
BEIDOU-3 M19 (C41)      
1 44864U 19090A   25117.48300310 -.00000015  00000+0  00000+0 0  9995
2 44864  56.1939  76.5705 0019589 290.1511 175.2244  1.86231337 36493
BEIDOU-3 M20 (C42)      
1 44865U 19090B   25117.46822659 -.00000015  00000+0  00000+0 0  9999
2 44865  56.1956  76.6048 0017427 302.4774 242.6588  1.86231254 36477
BEIDOU-3 G2 (C60)       
1 45344U 20017A   25117.54566937 -.00000139  00000+0  00000+0 0  9993
2 45344   2.7870  39.3280 0002518 340.0767 112.8495  1.00271278 19091
BEIDOU-3 G3 (C61)       
1 45807U 20040A   25117.59385267 -.00000351  00000+0  00000+0 0  9999
2 45807   1.4436  62.7501 0002414 317.7895 159.6342  1.00272171 17904
BEIDOU-3 G4 (C62)       
1 56564U 23066A   25117.60146897 -.00000111  00000+0  00000+0 0  9992
2 56564   1.3464 291.3661 0003074 203.7988  97.1936  1.00272156  7225
BEIDOU-3 M28 (C50)      
1 58654U 23207A   25117.15752344 -.00000014  00000+0  00000+0 0  9993
2 58654  55.3815  76.3793 0004590 310.9269  48.9964  1.86229795  9097
BEIDOU-3 M26 (C48)      
1 58655U 23207B   25116.95720433 -.00000012  00000+0  00000+0 0  9993
2 58655  55.3834  76.3720 0005027 292.8274  67.0834  1.86231490  9070
BEIDOU-3 M25 (C47)      
1 61186U 24168B   25117.31376402 -.00000056  00000+0  00000+0 0  9995
2 61186  54.8374 316.6540 0003624 306.6376  50.3476  1.86229796  4038
BEIDOU-3 M27 (C49)      
1 61187U 24168C   25117.38805760 -.00000057  00000+0  00000+0 0  9998
2 61187  54.8328 316.6359 0002387  25.9410 155.7271  1.86229918  1510
